{
  "norad_id": 64127,
  "name": "STARLINK-11721 [DTC]",
  "history": [
    {
      "epoch": "2026-03-28T15:23:31.258464",
      "apogee_km": 356.85919748534616,
      "perigee_km": 356.03757806803696,
      "latitude_deg": -38.75074750406837,
      "longitude_deg": -65.73193503986113,
      "semi_major_axis_km": 6734.585387776691,
      "eccentricity": 6.1e-05,
      "inclination_deg": 42.9993,
      "raan_deg": 219.2631,
      "arg_perigee_deg": 182.2188,
      "mean_anomaly_deg": 177.8677,
      "mean_motion_rev_day": 15.7085633
    }
  ]
}