{"fetched_at":"2026-03-30T06:02:59Z","count":15439,"tles":[{"name":"STARLINK-11721 [DTC]","line1":"1 64127U 25111E   26087.64133401  .00195851  00000+0  14931-2 0  9993","line2":"2 64127  42.9993 219.2631 0000610 182.2188 177.8677 15.70856330 49621","category":"Starlink"}]}